NORAD_CAT_ID,OBJECT_NAME,OBJECT_TYPE,EPOCH,MEAN_MOTION,ECCENTRICITY,INCLINATION,RA_OF_ASC_NODE,ARG_OF_PERICENTER,MEAN_ANOMALY,BSTAR,MEAN_MOTION_DOT,MEAN_MOTION_DDOT,TLE_LINE0,TLE_LINE1,TLE_LINE2,SEMIMAJOR_AXIS,PERIOD,APOGEE,PERIGEE,DECAYED
50822.0,STARLINK-3343,PAYLOAD,2024-06-27 20:50:49,15.0882665,0.0001437,53.2184,71.6088,96.3757,263.7399,-6.4156e-05,-1.308e-05,0.0,0 STARLINK-3343,1 50822U 22001V   24179.86862827 -.00001308  00000-0 -64156-4 0  9992,2 50822  53.2184  71.6088 0001437  96.3757 263.7399 15.08826650138084,6917.921,95.438,540.78,538.792,0.0
50822.0,STARLINK-3343,PAYLOAD,2024-06-27 22:26:12,15.08827122,0.0001392,53.218,71.3102,92.0593,268.0559,-6.2205e-05,-1.277e-05,0.0,0 STARLINK-3343,1 50822U 22001V   24179.93486818 -.00001277  00000-0 -62205-4 0  9990,2 50822  53.2180  71.3102 0001392  92.0593 268.0559 15.08827122136848,6917.92,95.438,540.748,538.822,0.0
50822.0,STARLINK-3343,PAYLOAD,2024-06-28 09:33:53,15.08841516,0.0001314,53.218,69.225,86.0646,274.0496,9.0122e-05,1.147e-05,0.0,0 STARLINK-3343,1 50822U 22001V   24180.39853634  .00001147  00000-0  90122-4 0  9999,2 50822  53.2180  69.2250 0001314  86.0646 274.0496 15.08841516138161,6917.876,95.437,540.65,538.832,0.0
50822.0,STARLINK-3343,PAYLOAD,2024-06-28 22:16:58,15.08848247,0.000133,53.2176,66.8483,82.6564,277.4579,6.6792e-05,7.75e-06,0.0,0 STARLINK-3343,1 50822U 22001V   24180.92845329  .00000775  00000-0  66792-4 0  9992,2 50822  53.2176  66.8483 0001330  82.6564 277.4579 15.08848247136992,6917.855,95.437,540.64,538.8,0.0
50822.0,STARLINK-3343,PAYLOAD,2024-06-28 23:52:20,15.08859681,0.0001475,53.2185,66.5541,104.6573,255.4583,0.00018135,2.601e-05,0.0,0 STARLINK-3343,1 50822U 22001V   24180.99468156  .00002601  00000-0  18135-3 0  9995,2 50822  53.2185  66.5541 0001475 104.6573 255.4583 15.08859681138255,6917.82,95.436,540.706,538.665,0.0
50822.0,STARLINK-3343,PAYLOAD,2024-06-29 22:07:46,15.08836118,0.0001364,53.2177,62.3854,127.3452,232.7665,8.021e-06,-1.6e-06,0.0,0 STARLINK-3343,1 50822U 22001V   24181.92206333 -.00000160  00000-0  80210-5 0  9990,2 50822  53.2177  62.3854 0001364 127.3452 232.7665 15.08836118137148,6917.892,95.438,540.701,538.814,0.0
50822.0,STARLINK-3343,PAYLOAD,2024-06-30 01:18:33,15.08821261,0.0001326,53.2179,61.791,81.8515,278.2628,-0.00011186,-2.067e-05,0.0,0 STARLINK-3343,1 50822U 22001V   24182.05455839 -.00002067  00000-0 -11186-3 0  9995,2 50822  53.2179  61.7910 0001326  81.8515 278.2628 15.08821261138416,6917.938,95.439,540.72,538.885,0.0
50822.0,STARLINK-3343,PAYLOAD,2024-06-30 09:15:29,15.08830533,0.0001265,53.2171,60.3062,85.0226,275.091,-4.0888e-05,-9.38e-06,0.0,0 STARLINK-3343,1 50822U 22001V   24182.38575321 -.00000938  00000-0 -40888-4 0  9997,2 50822  53.2171  60.3062 0001265  85.0226 275.0910 15.08830533138464,6917.909,95.438,540.649,538.899,0.0
50822.0,STARLINK-3343,PAYLOAD,2024-06-30 20:23:10,15.08841619,0.0001159,53.2166,58.2282,75.8257,284.2864,6.884e-05,8.08e-06,0.0,0 STARLINK-3343,1 50822U 22001V   24182.84942456  .00000808  00000-0  68840-4 0  9997,2 50822  53.2166  58.2282 0001159  75.8257 284.2864 15.08841619138536,6917.875,95.437,540.542,538.939,0.0
50822.0,STARLINK-3343,PAYLOAD,2024-06-30 21:58:33,15.08839031,7.96e-05,53.2151,57.93,76.0876,284.0204,7.2806e-05,8.71e-06,0.0,0 STARLINK-3343,1 50822U 22001V   24182.91566533  .00000871  00000-0  72806-4 0  9990,2 50822  53.2151  57.9300 0000796  76.0876 284.0204 15.08839031137296,6917.883,95.438,540.299,539.198,0.0
50822.0,STARLINK-3343,PAYLOAD,2024-07-01 09:06:13,15.08868599,0.0001152,53.2172,55.8475,109.4148,250.6969,9.0671e-05,1.157e-05,0.0,0 STARLINK-3343,1 50822U 22001V   24183.37932164  .00001157  00000-0  90671-4 0  9996,2 50822  53.2172  55.8475 0001152 109.4148 250.6969 15.08868599138614,6917.793,95.436,540.455,538.861,0.0
50822.0,STARLINK-3343,PAYLOAD,2024-07-01 20:13:57,15.08829091,0.0001427,53.2165,53.7644,88.2412,271.8743,0.00020647,2.999e-05,0.0,0 STARLINK-3343,1 50822U 22001V   24183.84303119  .00002999  00000-0  20647-3 0  9990,2 50822  53.2165  53.7644 0001427  88.2412 271.8743 15.08829091138680,6917.914,95.438,540.766,538.792,0.0
50822.0,STARLINK-3343,PAYLOAD,2024-07-01 21:49:20,15.0883102,0.0001388,53.2164,53.4657,96.0922,264.0228,0.00022361,3.272e-05,0.0,0 STARLINK-3343,1 50822U 22001V   24183.90927014  .00003272  00000-0  22361-3 0  9993,2 50822  53.2164  53.4657 0001388  96.0922 264.0228 15.08831020137449,6917.908,95.438,540.733,538.813,0.0
50822.0,STARLINK-3343,PAYLOAD,2024-07-02 20:04:44,15.08846033,0.000131,53.216,49.3032,92.2824,267.8318,0.0001051,1.385e-05,0.0,0 STARLINK-3343,1 50822U 22001V   24184.83662377  .00001385  00000-0  10510-3 0  9990,2 50822  53.2160  49.3032 0001310  92.2824 267.8318 15.08846033138835,6917.862,95.437,540.633,538.821,0.0
50822.0,STARLINK-3343,PAYLOAD,2024-07-02 21:40:07,15.08846954,0.0001244,53.2172,49.007,88.4855,271.6279,1.2229e-05,-9.3e-07,0.0,0 STARLINK-3343,1 50822U 22001V   24184.90286342 -.00000093  00000-0  12229-4 0  9998,2 50822  53.2172  49.0070 0001244  88.4855 271.6279 15.08846954137597,6917.859,95.437,540.585,538.864,0.0
50822.0,STARLINK-3343,PAYLOAD,2024-07-03 19:55:31,15.08838502,0.0001329,53.2176,44.8422,100.9917,259.1225,0.00016145,2.282e-05,0.0,0 STARLINK-3343,1 50822U 22001V   24185.83022743  .00002282  00000-0  16145-3 0  9995,2 50822  53.2176  44.8422 0001329 100.9917 259.1225 15.08838502138984,6917.885,95.438,540.669,538.831,0.0
50822.0,STARLINK-3343,PAYLOAD,2024-07-03 21:30:54,15.08840401,0.0001218,53.2173,44.5462,92.192,267.9212,0.00013322,1.833e-05,0.0,0 STARLINK-3343,1 50822U 22001V   24185.89646675  .00001833  00000-0  13322-3 0  9992,2 50822  53.2173  44.5462 0001218  92.1920 267.9212 15.08840401137742,6917.879,95.438,540.587,538.902,0.0
50822.0,STARLINK-3343,PAYLOAD,2024-07-04 07:03:13,15.08847496,0.0001252,53.2178,42.7626,93.2705,266.843,0.00017388,2.481e-05,0.0,0 STARLINK-3343,1 50822U 22001V   24186.29390212  .00002481  00000-0  17388-3 0  9996,2 50822  53.2178  42.7626 0001252  93.2705 266.8430 15.08847496139057,6917.857,95.437,540.589,538.856,0.0
50822.0,STARLINK-3343,PAYLOAD,2024-07-04 15:00:08,15.08845519,0.0001851,53.2167,41.2765,91.2845,268.836,6.1071e-05,6.84e-06,0.0,0 STARLINK-3343,1 50822U 22001V   24186.62510400  .00000684  00000-0  61071-4 0  9998,2 50822  53.2167  41.2765 0001851  91.2845 268.8360 15.08845519137855,6917.864,95.437,541.009,538.448,0.0
50822.0,STARLINK-3343,PAYLOAD,2024-07-04 21:21:41,15.08838086,0.0001326,53.2189,40.091,92.0355,268.0789,3.0522e-05,1.98e-06,0.0,0 STARLINK-3343,1 50822U 22001V   24186.89006866  .00000198  00000-0  30522-4 0  9990,2 50822  53.2189  40.0910 0001326  92.0355 268.0789 15.08838086139142,6917.886,95.438,540.669,538.834,0.0
50822.0,STARLINK-3343,PAYLOAD,2024-07-05 06:54:00,15.08850442,0.0001532,53.2168,38.3035,81.9625,278.154,0.00012914,1.768e-05,0.0,0 STARLINK-3343,1 50822U 22001V   24187.28750050  .00001768  00000-0  12914-3 0  9993,2 50822  53.2168  38.3035 0001532  81.9625 278.1540 15.08850442139207,6917.848,95.437,540.773,538.654,0.0
50822.0,STARLINK-3343,PAYLOAD,2024-07-05 21:12:28,15.08836245,0.0001218,53.2178,35.6266,98.029,262.0841,-6.3792e-06,-3.89e-06,0.0,0 STARLINK-3343,1 50822U 22001V   24187.88366799 -.00000389  00000-0 -63792-5 0  9994,2 50822  53.2178  35.6266 0001218  98.0290 262.0841 15.08836245139292,6917.892,95.438,540.599,538.914,0.0
50822.0,STARLINK-3343,PAYLOAD,2024-07-06 06:44:47,15.0885045,0.0001246,53.2184,33.842,89.768,270.3455,0.00024495,3.614e-05,0.0,0 STARLINK-3343,1 50822U 22001V   24188.28110139  .00003614  00000-0  24495-3 0  9991,2 50822  53.2184  33.8420 0001246  89.7680 270.3455 15.08850450139356,6917.848,95.437,540.575,538.851,0.0
50822.0,STARLINK-3343,PAYLOAD,2024-07-06 19:27:52,15.08836076,0.0001333,53.2172,31.463,90.6049,269.5096,2.3728e-05,9e-07,0.0,0 STARLINK-3343,1 50822U 22001V   24188.81102850  .00000090  00000-0  23728-4 0  9995,2 50822  53.2172  31.4630 0001333  90.6049 269.5096 15.08836076139435,6917.892,95.438,540.68,538.835,0.0
50822.0,STARLINK-3343,PAYLOAD,2024-07-06 21:03:15,15.08838443,0.0001261,53.217,31.1654,89.4198,270.6939,0.00020499,2.976e-05,0.0,0 STARLINK-3343,1 50822U 22001V   24188.87726805  .00002976  00000-0  20499-3 0  9999,2 50822  53.2170  31.1654 0001261  89.4198 270.6939 15.08838443138198,6917.885,95.438,540.622,538.878,0.0
50822.0,STARLINK-3343,PAYLOAD,2024-07-07 06:35:34,15.08850016,0.0001312,53.2168,29.3794,80.344,279.7701,0.00071189,0.00011063,0.0,0 STARLINK-3343,1 50822U 22001V   24189.27470682  .00011063  00000-0  71189-3 0  9992,2 50822  53.2168  29.3794 0001312  80.3440 279.7701 15.08850016139509,6917.85,95.437,540.622,538.807,0.0
50822.0,STARLINK-3343,PAYLOAD,2024-07-07 20:54:03,15.08843357,0.0001206,53.2172,26.7051,80.851,279.2618,0.0010401,0.00016305,0.0,0 STARLINK-3343,1 50822U 22001V   24189.87086922  .00016305  00000-0  10401-2 0  9991,2 50822  53.2172  26.7051 0001206  80.8510 279.2618 15.08843357139597,6917.87,95.437,540.569,538.901,0.0
50822.0,STARLINK-3343,PAYLOAD,2024-07-08 06:26:21,15.08852299,0.0001265,53.2171,24.9208,78.5584,281.555,0.0008822,0.00013785,0.0,0 STARLINK-3343,1 50822U 22001V   24190.26830718  .00013785  00000-0  88220-3 0  9990,2 50822  53.2171  24.9208 0001265  78.5584 281.5550 15.08852299138405,6917.843,95.437,540.583,538.833,0.0
50822.0,STARLINK-3343,PAYLOAD,2024-07-08 19:09:26,15.08844872,0.0001214,53.2176,22.5383,102.2026,257.9102,0.00061999,9.594e-05,0.0,0 STARLINK-3343,1 50822U 22001V   24190.79822815  .00009594  00000-0  61999-3 0  9994,2 50822  53.2176  22.5383 0001214 102.2026 257.9102 15.08844872139733,6917.865,95.437,540.57,538.891,0.0
50822.0,STARLINK-3343,PAYLOAD,2024-07-08 22:20:13,15.08849035,0.0001188,53.2175,21.9448,99.7288,260.3838,0.00087111,0.00013606,0.0,0 STARLINK-3343,1 50822U 22001V   24190.93070816  .00013606  00000-0  87111-3 0  9999,2 50822  53.2175  21.9448 0001188  99.7288 260.3838 15.08849035138501,6917.853,95.437,540.54,538.896,0.0
